{
    "links": {
        "self": "http://www.neowsapp.com/rest/v1/neo/3432678?api_key=iIulBulltgU6a56xZRHN4H3l9WmuAYTsLGpBGhQ2"
    },
    "id": "3432678",
    "neo_reference_id": "3432678",
    "name": "(2008 UM1)",
    "designation": "2008 UM1",
    "nasa_jpl_url": "http://ssd.jpl.nasa.gov/sbdb.cgi?sstr=3432678",
    "absolute_magnitude_h": 32.1,
    "estimated_diameter": {
        "kilometers": {
            "estimated_diameter_min": 0.0010105434,
            "estimated_diameter_max": 0.0022596438
        },
        "meters": {
            "estimated_diameter_min": 1.0105434154,
            "estimated_diameter_max": 2.2596437711
        },
        "miles": {
            "estimated_diameter_min": 0.0006279224,
            "estimated_diameter_max": 0.0014040771
        },
        "feet": {
            "estimated_diameter_min": 3.315431259,
            "estimated_diameter_max": 7.41352967
        }
    },
    "is_potentially_hazardous_asteroid": false,
    "close_approach_data": [
        {
            "close_approach_date": "2008-10-22",
            "close_approach_date_full": "2008-Oct-22 03:57",
            "epoch_date_close_approach": 1224647820000,
            "relative_velocity": {
                "kilometers_per_second": "18.1358141206",
                "kilometers_per_hour": "65288.9308343303",
                "miles_per_hour": "40568.0026064759"
            },
            "miss_distance": {
                "astronomical": "0.0005718008",
                "lunar": "0.2224305112",
                "kilometers": "85540.181744296",
                "miles": "53152.2042354448"
            },
            "orbiting_body": "Earth"
        },
        {
            "close_approach_date": "2008-10-22",
            "close_approach_date_full": "2008-Oct-22 04:13",
            "epoch_date_close_approach": 1224648780000,
            "relative_velocity": {
                "kilometers_per_second": "19.1365652314",
                "kilometers_per_hour": "68891.6348331991",
                "miles_per_hour": "42806.5827662175"
            },
            "miss_distance": {
                "astronomical": "0.0030774982",
                "lunar": "1.1971467998",
                "kilometers": "460387.175648834",
                "miles": "286071.3256445492"
            },
            "orbiting_body": "Moon"
        }
    ],
    "orbital_data": {
        "orbit_id": "12",
        "orbit_determination_date": "2017-04-06 09:02:30",
        "first_observation_date": "2008-10-22",
        "last_observation_date": "2008-10-22",
        "data_arc_in_days": null,
        "observations_used": 9,
        "orbit_uncertainty": "9",
        "minimum_orbit_intersection": "1.16032E-5",
        "jupiter_tisserand_invariant": "3.203",
        "epoch_osculation": "2454761.5",
        "eccentricity": ".6823832883945092",
        "semi_major_axis": "2.335502326933729",
        "inclination": "5.283451804728175",
        "ascending_node_longitude": "208.9416504765725",
        "orbital_period": "1303.673637248525",
        "perihelion_distance": ".7417945690276627",
        "perihelion_argument": "111.8738326761374",
        "aphelion_distance": "3.929210084839795",
        "perihelion_time": "2454719.649045004418",
        "mean_anomaly": "11.55683705486893",
        "mean_motion": ".2761427321333272",
        "equinox": "J2000",
        "orbit_class": {
            "orbit_class_type": "APO",
            "orbit_class_description": "Near-Earth asteroid orbits which cross the Earth’s orbit similar to that of 1862 Apollo",
            "orbit_class_range": "a (semi-major axis) > 1.0 AU; q (perihelion) < 1.017 AU"
        }
    },
    "is_sentry_object": false
}